start=new Date('2022-07-28T00:00:00.000Z').valueOf();
sats=[{"PERIOD":"95.438","TLE_LINE1":"1 49761U 21115AP  22208.66502240  .00002218  00000-0  15744-3 0  9993","RCS_SIZE":"LARGE","ARG_OF_PERICENTER":"48.0903","MEAN_MOTION":"15.08835511","NORAD_CAT_ID":"49761","GP_ID":"209000870","ELEMENT_SET_NO":"999","REF_FRAME":"TEME","SEMIMAJOR_AXIS":"6917.894","RA_OF_ASC_NODE":"309.4458","DECAY_DATE":null,"BSTAR":"0.00015744000000","MEAN_ELEMENT_THEORY":"SGP4","REV_AT_EPOCH":"3624","MEAN_MOTION_DOT":"0.00002218","EPOCH":"2022-07-27T15:57:37.935360","OBJECT_ID":"2021-115AP","SITE":"AFETR","FILE":"3523323","APOAPSIS":"541.045","INCLINATION":"53.2170","OBJECT_NAME":"STARLINK-3203","PERIAPSIS":"538.473","COUNTRY_CODE":"US","CLASSIFICATION_TYPE":"U","OBJECT_TYPE":"PAYLOAD","CENTER_NAME":"EARTH","LAUNCH_DATE":"2021-12-02","MEAN_ANOMALY":"312.0247","EPHEMERIS_TYPE":"0","ECCENTRICITY":"0.00018590","TLE_LINE2":"2 49761  53.2170 309.4458 0001859  48.0903 312.0247 15.08835511 36248","MEAN_MOTION_DDOT":"0.0000000000000","TIME_SYSTEM":"UTC"},{"MEAN_ANOMALY":"303.4318","EPHEMERIS_TYPE":"0","ECCENTRICITY":"0.00016320","TLE_LINE2":"2 49762  53.2178 309.0648 0001632  56.6830 303.4318 15.08839204 36265","TIME_SYSTEM":"UTC","MEAN_MOTION_DDOT":"0.0000000000000","CENTER_NAME":"EARTH","LAUNCH_DATE":"2021-12-02","OBJECT_NAME":"STARLINK-3195","COUNTRY_CODE":"US","OBJECT_TYPE":"PAYLOAD","CLASSIFICATION_TYPE":"U","PERIAPSIS":"538.619","FILE":"3523323","APOAPSIS":"540.877","INCLINATION":"53.2178","DECAY_DATE":null,"REV_AT_EPOCH":"3626","MEAN_ELEMENT_THEORY":"SGP4","BSTAR":"0.00007132700000","MEAN_MOTION_DOT":"0.00000847","EPOCH":"2022-07-27T17:59:30.368256","OBJECT_ID":"2021-115AQ","SITE":"AFETR","NORAD_CAT_ID":"49762","GP_ID":"208999620","REF_FRAME":"TEME","ELEMENT_SET_NO":"999","RA_OF_ASC_NODE":"309.0648","SEMIMAJOR_AXIS":"6917.883","ARG_OF_PERICENTER":"56.6830","RCS_SIZE":"LARGE","MEAN_MOTION":"15.08839204","PERIOD":"95.438","TLE_LINE1":"1 49762U 21115AQ  22208.74965704  .00000847  00000-0  71327-4 0  9997"},{"MEAN_MOTION":"15.08842040","RCS_SIZE":"LARGE","ARG_OF_PERICENTER":"59.2094","TLE_LINE1":"1 49763U 21115AR  22208.67238218  .00003050  00000-0  20962-3 0  9990","PERIOD":"95.437","OBJECT_ID":"2021-115AR","MEAN_MOTION_DOT":"0.00003050","EPOCH":"2022-07-27T16:08:13.820352","SITE":"AFETR","DECAY_DATE":null,"BSTAR":"0.00020962000000","MEAN_ELEMENT_THEORY":"SGP4","REV_AT_EPOCH":"3625","ELEMENT_SET_NO":"999","REF_FRAME":"TEME","SEMIMAJOR_AXIS":"6917.874","RA_OF_ASC_NODE":"309.4016","NORAD_CAT_ID":"49763","GP_ID":"209000363","PERIAPSIS":"538.660","COUNTRY_CODE":"US","OBJECT_TYPE":"PAYLOAD","CLASSIFICATION_TYPE":"U","OBJECT_NAME":"STARLINK-3198","APOAPSIS":"540.818","INCLINATION":"53.2209","FILE":"3523323","TLE_LINE2":"2 49763  53.2209 309.4016 0001560  59.2094 300.9052 15.08842040 36253","ECCENTRICITY":"0.00015600","MEAN_MOTION_DDOT":"0.0000000000000","TIME_SYSTEM":"UTC","MEAN_ANOMALY":"300.9052","EPHEMERIS_TYPE":"0","CENTER_NAME":"EARTH","LAUNCH_DATE":"2021-12-02"},{"EPOCH":"2022-07-27T14:59:19.238208","MEAN_MOTION_DOT":"0.00000547","OBJECT_ID":"2021-115AS","SITE":"AFETR","DECAY_DATE":null,"REV_AT_EPOCH":"3736","BSTAR":"0.00005249900000","MEAN_ELEMENT_THEORY":"SGP4","REF_FRAME":"TEME","ELEMENT_SET_NO":"999","RA_OF_ASC_NODE":"309.6233","SEMIMAJOR_AXIS":"6917.893","GP_ID":"209000622","NORAD_CAT_ID":"49764","RCS_SIZE":"LARGE","ARG_OF_PERICENTER":"51.8293","MEAN_MOTION":"15.08836003","TLE_LINE1":"1 49764U 21115AS  22208.62452822  .00000547  00000-0  52499-4 0  9994","PERIOD":"95.438","TLE_LINE2":"2 49764  53.2186 309.6233 0001766  51.8293 308.2858 15.08836003 37368","ECCENTRICITY":"0.00017660","TIME_SYSTEM":"UTC","MEAN_MOTION_DDOT":"0.0000000000000","MEAN_ANOMALY":"308.2858","EPHEMERIS_TYPE":"0","CENTER_NAME":"EARTH","LAUNCH_DATE":"2021-12-02","COUNTRY_CODE":"US","CLASSIFICATION_TYPE":"U","OBJECT_TYPE":"PAYLOAD","PERIAPSIS":"538.536","OBJECT_NAME":"STARLINK-3206","APOAPSIS":"540.979","INCLINATION":"53.2186","FILE":"3523323"},{"TLE_LINE1":"1 49765U 21115AT  22208.67972933  .00002368  00000-0  16679-3 0  9992","PERIOD":"95.437","RCS_SIZE":"LARGE","ARG_OF_PERICENTER":"56.3563","MEAN_MOTION":"15.08844217","SEMIMAJOR_AXIS":"6917.867","RA_OF_ASC_NODE":"309.3712","REF_FRAME":"TEME","ELEMENT_SET_NO":"999","NORAD_CAT_ID":"49765","GP_ID":"209001363","SITE":"AFETR","EPOCH":"2022-07-27T16:18:48.614112","MEAN_MOTION_DOT":"0.00002368","OBJECT_ID":"2021-115AT","BSTAR":"0.00016679000000","MEAN_ELEMENT_THEORY":"SGP4","REV_AT_EPOCH":"3625","DECAY_DATE":null,"INCLINATION":"53.2185","APOAPSIS":"540.929","FILE":"3523323","PERIAPSIS":"538.536","OBJECT_TYPE":"PAYLOAD","COUNTRY_CODE":"US","CLASSIFICATION_TYPE":"U","OBJECT_NAME":"STARLINK-3227","LAUNCH_DATE":"2021-12-02","CENTER_NAME":"EARTH","MEAN_MOTION_DDOT":"0.0000000000000","TIME_SYSTEM":"UTC","ECCENTRICITY":"0.00017300","TLE_LINE2":"2 49765  53.2185 309.3712 0001730  56.3563 303.7594 15.08844217 36258","EPHEMERIS_TYPE":"0","MEAN_ANOMALY":"303.7594"},{"ARG_OF_PERICENTER":"45.7046","RCS_SIZE":"LARGE","MEAN_MOTION":"15.08847485","TLE_LINE1":"1 49766U 21115AU  22208.56197070  .00003410  00000-0  23221-3 0  9992","PERIOD":"95.437","SITE":"AFETR","EPOCH":"2022-07-27T13:29:14.268480","MEAN_MOTION_DOT":"0.00003410","OBJECT_ID":"2021-115AU","MEAN_ELEMENT_THEORY":"SGP4","BSTAR":"0.00023221000000","REV_AT_EPOCH":"3623","DECAY_DATE":null,"SEMIMAJOR_AXIS":"6917.858","RA_OF_ASC_NODE":"309.9073","ELEMENT_SET_NO":"999","REF_FRAME":"TEME","NORAD_CAT_ID":"49766","GP_ID":"208970589","PERIAPSIS":"538.509","CLASSIFICATION_TYPE":"U","COUNTRY_CODE":"US","OBJECT_TYPE":"PAYLOAD","OBJECT_NAME":"STARLINK-3190","INCLINATION":"53.2172","APOAPSIS":"540.936","FILE":"3523109","MEAN_MOTION_DDOT":"0.0000000000000","TIME_SYSTEM":"UTC","TLE_LINE2":"2 49766  53.2172 309.9073 0001754  45.7046 314.4090 15.08847485 36233","ECCENTRICITY":"0.00017540","EPHEMERIS_TYPE":"0","MEAN_ANOMALY":"314.4090","LAUNCH_DATE":"2021-12-02","CENTER_NAME":"EARTH"},{"REF_FRAME":"TEME","ELEMENT_SET_NO":"999","RA_OF_ASC_NODE":"309.9400","SEMIMAJOR_AXIS":"6917.870","NORAD_CAT_ID":"49767","GP_ID":"208969337","EPOCH":"2022-07-27T13:18:38.679840","MEAN_MOTION_DOT":"0.00001945","OBJECT_ID":"2021-115AV","SITE":"AFETR","DECAY_DATE":null,"REV_AT_EPOCH":"3623","MEAN_ELEMENT_THEORY":"SGP4","BSTAR":"0.00014026000000","TLE_LINE1":"1 49767U 21115AV  22208.55461435  .00001945  00000-0  14026-3 0  9995","PERIOD":"95.437","ARG_OF_PERICENTER":"62.2948","RCS_SIZE":"LARGE","MEAN_MOTION":"15.08843561","CENTER_NAME":"EARTH","LAUNCH_DATE":"2021-12-02","ECCENTRICITY":"0.00016880","TLE_LINE2":"2 49767  53.2175 309.9400 0001688  62.2948 297.8215 15.08843561 36236","TIME_SYSTEM":"UTC","MEAN_MOTION_DDOT":"0.0000000000000","MEAN_ANOMALY":"297.8215","EPHEMERIS_TYPE":"0","APOAPSIS":"540.902","INCLINATION":"53.2175","FILE":"3523109","CLASSIFICATION_TYPE":"U","COUNTRY_CODE":"US","OBJECT_TYPE":"PAYLOAD","PERIAPSIS":"538.567","OBJECT_NAME":"STARLINK-3192"},{"INCLINATION":"53.2192","APOAPSIS":"540.961","FILE":"3523323","PERIAPSIS":"538.530","CLASSIFICATION_TYPE":"U","COUNTRY_CODE":"US","OBJECT_TYPE":"PAYLOAD","OBJECT_NAME":"STARLINK-3196","LAUNCH_DATE":"2021-12-02","CENTER_NAME":"EARTH","MEAN_MOTION_DDOT":"0.0000000000000","TIME_SYSTEM":"UTC","ECCENTRICITY":"0.00017570","TLE_LINE2":"2 49768  53.2192 309.2772 0001757  54.2178 305.8977 15.08839810 36253","EPHEMERIS_TYPE":"0","MEAN_ANOMALY":"305.8977","TLE_LINE1":"1 49768U 21115AW  22208.70180818  .00000419  00000-0  44452-4 0  9998","PERIOD":"95.438","RCS_SIZE":"LARGE","ARG_OF_PERICENTER":"54.2178","MEAN_MOTION":"15.08839810","SEMIMAJOR_AXIS":"6917.881","RA_OF_ASC_NODE":"309.2772","ELEMENT_SET_NO":"999","REF_FRAME":"TEME","NORAD_CAT_ID":"49768","GP_ID":"209001115","SITE":"AFETR","MEAN_MOTION_DOT":"0.00000419","EPOCH":"2022-07-27T16:50:36.226752","OBJECT_ID":"2021-115AW","BSTAR":"0.00004445200000","MEAN_ELEMENT_THEORY":"SGP4","REV_AT_EPOCH":"3625","DECAY_DATE":null},{"MEAN_MOTION_DOT":"0.00004550","OBJECT_ID":"2021-115AX","EPOCH":"2022-07-27T18:20:42.202176","SITE":"AFETR","DECAY_DATE":null,"BSTAR":"0.00030371000000","MEAN_ELEMENT_THEORY":"SGP4","REV_AT_EPOCH":"3626","REF_FRAME":"TEME","ELEMENT_SET_NO":"999","SEMIMAJOR_AXIS":"6917.856","RA_OF_ASC_NODE":"308.9971","NORAD_CAT_ID":"49769","GP_ID":"209000871","RCS_SIZE":"LARGE","MEAN_MOTION":"15.08847979","ARG_OF_PERICENTER":"68.5731","TLE_LINE1":"1 49769U 21115AX  22208.76437734  .00004550  00000-0  30371-3 0  9991","PERIOD":"95.437","TLE_LINE2":"2 49769  53.2169 308.9971 0001427  68.5731 291.5413 15.08847979 36264","ECCENTRICITY":"0.00014270","MEAN_MOTION_DDOT":"0.0000000000000","TIME_SYSTEM":"UTC","MEAN_ANOMALY":"291.5413","EPHEMERIS_TYPE":"0","CENTER_NAME":"EARTH","LAUNCH_DATE":"2021-12-02","PERIAPSIS":"538.734","OBJECT_TYPE":"PAYLOAD","COUNTRY_CODE":"US","CLASSIFICATION_TYPE":"U","OBJECT_NAME":"STARLINK-3208","APOAPSIS":"540.708","INCLINATION":"53.2169","FILE":"3523323"},{"CENTER_NAME":"EARTH","LAUNCH_DATE":"2021-12-02","TLE_LINE2":"2 49770  53.2166 309.2631 0001680  47.2443 312.8690 15.08834137 37374","ECCENTRICITY":"0.00016800","MEAN_MOTION_DDOT":"0.0000000000000","TIME_SYSTEM":"UTC","MEAN_ANOMALY":"312.8690","EPHEMERIS_TYPE":"0","APOAPSIS":"540.926","INCLINATION":"53.2166","FILE":"3523323","PERIAPSIS":"538.601","COUNTRY_CODE":"US","OBJECT_TYPE":"PAYLOAD","CLASSIFICATION_TYPE":"U","OBJECT_NAME":"STARLINK-3191","REF_FRAME":"TEME","ELEMENT_SET_NO":"999","SEMIMAJOR_AXIS":"6917.898","RA_OF_ASC_NODE":"309.2631","NORAD_CAT_ID":"49770","GP_ID":"208999621","MEAN_MOTION_DOT":"0.00004268","EPOCH":"2022-07-27T16:55:56.074368","OBJECT_ID":"2021-115AY","SITE":"AFETR","DECAY_DATE":null,"BSTAR":"0.00028615000000","MEAN_ELEMENT_THEORY":"SGP4","REV_AT_EPOCH":"3737","TLE_LINE1":"1 49770U 21115AY  22208.70551012  .00004268  00000-0  28615-3 0  9997","PERIOD":"95.438","MEAN_MOTION":"15.08834137","RCS_SIZE":"LARGE","ARG_OF_PERICENTER":"47.2443"}];
